0 SL-3 DEB
1 24893U 88032C   13283.41332985  .00000782  00000-0  77500-4 0  2767
2 24893 097.7522 334.9215 0038153 314.9405 166.4575 14.94208241135584
0 SL-3 DEB
1 24893U 88032C   13285.81090859  .00001147  00000-0  11104-3 0  2789
2 24893 097.7519 337.2885 0037980 306.6838 103.6775 14.94209019135943
0 SL-3 DEB
1 24893U 88032C   13286.81603074  .00001365  00000-0  13112-3 0  2793
2 24893 097.7517 338.2807 0037913 303.2650 110.4624 14.94210392136099
0 SL-3 DEB
1 24893U 88032C   13287.82080369  .00001502  00000-0  14371-3 0  2804
2 24893 097.7515 339.2727 0037873 299.8273 115.3885 14.94214637136241
0 SL-3 DEB
1 24893U 88032C   13289.16191920  .00001369  00000-0  13150-3 0  2815
2 24893 097.7511 340.5967 0037849 295.2539 129.5865 14.94221521136443
0 SL-3 DEB
1 24893U 88032C   13290.44541372  .00001049  00000-0  10207-3 0  2824
2 24893 097.7509 341.8638 0037839 290.8446 193.8802 14.94227100136631
0 SL-3 DEB
1 24893U 88032C   13291.45087656  .00000749  00000-0  74454-4 0  2838
2 24893 097.7506 342.8563 0037860 287.3879 202.5785 14.94231353136780
0 SL-3 DEB
1 24893U 88032C   13292.84418321  .00000645  00000-0  64887-4 0  2844
2 24893 097.7504 344.2317 0037912 282.5828 137.6540 14.94234971136999
0 SL-3 DEB
1 24893U 88032C   13293.84878872  .00000588  00000-0  59627-4 0  2859
2 24893 097.7502 345.2233 0037969 279.1018 141.8046 14.94236762137146
0 SL-3 DEB
1 24893U 88032C   13296.12409910  .00000830  00000-0  81819-4 0  2865
2 24893 097.7500 347.4690 0038128 271.2038 141.6011 14.94239069137488
